[Satellite]
VERSION=1.1
NAME=STARLINK-4788
NICKNAME=STARLINK-4788
TLE1=1 53863U 22114AX  22290.91667824 -.00043318  00000+0 -30536-3 0  9993
TLE2=2 53863  53.2141 115.8689 0001095  71.7843  86.3992 15.73235194  1307
STATUS=0
